ZIYUAN 3-02 (ZY 3-02)   
1 41556U 16033A   26194.82844801  .00003087  00000+0  14026-3 0  9994
2 41556  97.3832 270.0903 0013919 189.6555 170.4415 15.21426337562030
